NORAD_CAT_ID,OBJECT_NAME,OBJECT_TYPE,EPOCH,MEAN_MOTION,ECCENTRICITY,INCLINATION,RA_OF_ASC_NODE,ARG_OF_PERICENTER,MEAN_ANOMALY,BSTAR,MEAN_MOTION_DOT,MEAN_MOTION_DDOT,TLE_LINE0,TLE_LINE1,TLE_LINE2,SEMIMAJOR_AXIS,PERIOD,APOGEE,PERIGEE,DECAYED
52987.0,STARLINK-4259,PAYLOAD,2022-08-29 22:00:00,15.08851043,0.0002233,53.218,125.1625,58.9145,329.1151,-0.001234,-0.0001988,0.0,0 STARLINK-4259,1 52987U 22076B   22241.91667824 -.00019880  00000-0 -12340-2 0  9992,2 52987  53.2180 125.1625 0002233  58.9145 329.1151 15.08851043  8764,6917.847,95.437,541.256,538.1669999999998,0.0
52987.0,STARLINK-4259,PAYLOAD,2022-08-30 14:00:01,15.08828381,0.0002046999999999,53.2175,122.1682,63.545,347.6921,0.00054487,8.391e-05,0.0,0 STARLINK-4259,1 52987U 22076B   22242.58334491  .00008391  00000-0  54487-3 0  9999,2 52987  53.2175 122.1682 0002047  63.5450 347.6921 15.08828381  1304,6917.916,95.438,541.197,538.365,0.0
52987.0,STARLINK-4259,PAYLOAD,2022-08-30 22:00:00,15.08834387,0.0002151999999999,53.2173,120.6734,59.53100000000001,3.2908,-0.0011802,-0.0001902,0.0,0 STARLINK-4259,1 52987U 22076B   22242.91667824 -.00019020  00000-0 -11802-2 0  9991,2 52987  53.2173 120.6734 0002152  59.5310   3.2908 15.08834387  8917,6917.898,95.438,541.251,538.274,0.0
52987.0,STARLINK-4259,PAYLOAD,2022-08-31 14:00:01,15.08818755,0.0002056,53.2169,117.679,65.1551,20.8393,0.0027111,0.00043099,0.0,0 STARLINK-4259,1 52987U 22076B   22243.58334491  .00043099  00000-0  27111-2 0  9997,2 52987  53.2169 117.6790 0002056  65.1551  20.8393 15.08818755  9019,6917.945,95.439,541.2330000000002,538.388,0.0
52987.0,STARLINK-4259,PAYLOAD,2022-08-31 22:00:00,15.08847189,0.0002197,53.2169,116.1843,61.3013,36.2817,-0.00090081,-0.00014599,0.0,0 STARLINK-4259,1 52987U 22076B   22243.91667824 -.00014599  00000-0 -90081-3 0  9995,2 52987  53.2169 116.1843 0002197  61.3013  36.2817 15.08847189  1308,6917.858,95.437,541.243,538.2040000000002,0.0
52987.0,STARLINK-4259,PAYLOAD,2022-09-01 06:00:00,15.08860693,0.0002164,53.2167,114.6875,59.7094,49.4651,-0.0015373,-0.00024686,0.0,0 STARLINK-4259,1 52987U 22076B   22244.25001157 -.00024686  00000-0 -15373-2 0  9992,2 52987  53.2167 114.6875 0002164  59.7094  49.4651 15.08860693  9123,6917.816999999999,95.436,541.179,538.185,0.0
52987.0,STARLINK-4259,PAYLOAD,2022-09-01 14:00:01,15.08834372,0.0002061,53.2169,113.1896,65.5815,55.269,2.5149e-05,1.12e-06,0.0,0 STARLINK-4259,1 52987U 22076B   22244.58335648  .00000112  00000-0  25149-4 0  9993,2 52987  53.2169 113.1896 0002061  65.5815  55.2690 15.08834372  1309,6917.898,95.438,541.188,538.337,0.0
52987.0,STARLINK-4259,PAYLOAD,2022-09-01 22:00:00,15.08831248,0.0002165,53.2169,111.6951,60.5992,71.7784,-0.00060492,-9.901e-05,0.0,0 STARLINK-4259,1 52987U 22076B   22244.91667824 -.00009901  00000-0 -60492-3 0  9990,2 52987  53.2169 111.6951 0002165  60.5992  71.7784 15.08831248  1306,6917.906999999997,95.438,541.27,538.274,0.0
52987.0,STARLINK-4259,PAYLOAD,2022-09-02 06:00:00,15.08847186,0.0002133,53.2169,110.1982,59.6769,84.2758,-0.0016027,-0.0002571,0.0,0 STARLINK-4259,1 52987U 22076B   22245.25001157 -.00025710  00000-0 -16027-2 0  9999,2 52987  53.2169 110.1982 0002133  59.6769  84.2758 15.08847186  9272,6917.858,95.437,541.1990000000002,538.248,0.0
52987.0,STARLINK-4259,PAYLOAD,2022-09-02 14:00:01,15.08828625,0.0002095,53.2173,108.7005,65.9985,89.5502,0.0020413,0.00032339,0.0,0 STARLINK-4259,1 52987U 22076B   22245.58334491  .00032339  00000-0  20413-2 0  9992,2 52987  53.2173 108.7005 0002095  65.9985  89.5502 15.08828625  1301,6917.915,95.438,541.229,538.331,0.0
52987.0,STARLINK-4259,PAYLOAD,2022-09-02 22:00:01,15.08841953,0.0002234999999999,53.2174,107.2059,60.9255,106.2801,-0.00016186,-2.864e-05,0.0,0 STARLINK-4259,1 52987U 22076B   22245.91668981 -.00002864  00000-0 -16186-3 0  9998,2 52987  53.2174 107.2059 0002235  60.9255 106.2801 15.08841953  1304,6917.874,95.437,541.286,538.193,0.0
52987.0,STARLINK-4259,PAYLOAD,2022-09-03 00:00:00,15.08827118,0.000226,53.2176,106.8321,59.808,200.2379,0.0020795,0.00032951,0.0,0 STARLINK-4259,1 52987U 22076B   22246.00001157  .00032951  00000-0  20795-2 0  9993,2 52987  53.2176 106.8321 0002260  59.8080 200.2379 15.08827118  9382,6917.92,95.438,541.3480000000002,538.221,0.0
52987.0,STARLINK-4259,PAYLOAD,2022-09-03 14:00:01,15.08820336,0.0002055,53.218,104.2115,65.5111,124.8323,0.0018132,0.00028672,0.0,0 STARLINK-4259,1 52987U 22076B   22246.58334491  .00028672  00000-0  18132-2 0  9993,2 52987  53.2180 104.2115 0002055  65.5111 124.8323 15.08820336  1300,6917.94,95.439,541.227,538.384,0.0
52987.0,STARLINK-4259,PAYLOAD,2022-09-03 22:00:00,15.08831632,0.0002193,53.2181,102.717,59.9497,141.982,0.00041098,6.257e-05,0.0,0 STARLINK-4259,1 52987U 22076B   22246.91667824  .00006257  00000-0  41098-3 0  9992,2 52987  53.2181 102.7170 0002193  59.9497 141.9820 15.08831632  1305,6917.906,95.438,541.288,538.254,0.0
52987.0,STARLINK-4259,PAYLOAD,2022-09-04 14:00:01,15.08860616,0.0002028,53.2187,99.7227,66.1793,159.0083,-0.0010049,-0.00016255,0.0,0 STARLINK-4259,1 52987U 22076B   22247.58335648 -.00016255  00000-0 -10049-2 0  9994,2 52987  53.2187  99.7227 0002028  66.1793 159.0083 15.08860616  9623,6917.816999999999,95.436,541.085,538.279,0.0
52987.0,STARLINK-4259,PAYLOAD,2022-09-04 20:00:01,15.08847933,0.0002064,53.2187,98.6019,60.46100000000001,83.3768,-0.0013352,-0.0002148,0.0,0 STARLINK-4259,1 52987U 22076B   22247.83334491 -.00021480  00000-0 -13352-2 0  9993,2 52987  53.2187  98.6019 0002064  60.4610  83.3768 15.08847933  1308,6917.856,95.437,541.149,538.293,0.0
52987.0,STARLINK-4259,PAYLOAD,2022-09-05 14:00:01,15.08848243,0.0001871,53.219,95.234,65.4963,194.4469,-0.00034267,-5.739e-05,0.0,0 STARLINK-4259,1 52987U 22076B   22248.58334491 -.00005739  00000-0 -34267-3 0  9994,2 52987  53.2190  95.2340 0001871  65.4963 194.4469 15.08848243  9779,6917.855,95.437,541.015,538.4259999999998,0.0
52987.0,STARLINK-4259,PAYLOAD,2022-09-05 22:00:00,15.08830254,0.0001931,53.2189,93.7395,57.4991,214.045,-0.0014911,-0.00023935,0.0,0 STARLINK-4259,1 52987U 22076B   22248.91667824 -.00023935  00000-0 -14911-2 0  9991,2 52987  53.2189  93.7395 0001931  57.4991 214.0450 15.08830254  1302,6917.91,95.438,541.111,538.439,0.0
52987.0,STARLINK-4259,PAYLOAD,2022-09-06 06:00:00,15.08830282,0.000177,53.2187,92.2422,58.7398,224.3747,-0.0017305,-0.00027716,0.0,0 STARLINK-4259,1 52987U 22076B   22249.25001157 -.00027716  00000-0 -17305-2 0  9991,2 52987  53.2187  92.2422 0001770  58.7398 224.3747 15.08830282  9875,6917.91,95.438,541.0,538.5509999999998,0.0
52987.0,STARLINK-4259,PAYLOAD,2022-09-06 14:00:01,15.08823483,0.000173,53.2188,90.7454,65.2037,229.4786,0.00097296,0.00015224,0.0,0 STARLINK-4259,1 52987U 22076B   22249.58334491  .00015224  00000-0  97296-3 0  9994,2 52987  53.2188  90.7454 0001730  65.2037 229.4786 15.08823483  1307,6917.931,95.439,540.993,538.599,0.0
52987.0,STARLINK-4259,PAYLOAD,2022-09-06 22:00:00,15.08815847,0.0001883,53.2186,89.2509,58.4133,247.8525,0.0014562999999999,0.0002295,0.0,0 STARLINK-4259,1 52987U 22076B   22249.91667824  .00022950  00000-0  14563-2 0  9999,2 52987  53.2186  89.2509 0001883  58.4133 247.8525 15.08815847  9970,6917.954000000002,95.439,541.122,538.5169999999998,0.0
52987.0,STARLINK-4259,PAYLOAD,2022-09-07 14:00:01,15.08842856,0.0001748,53.2182,86.2566,66.7831,262.6415,0.000401,6.1e-05,0.0,0 STARLINK-4259,1 52987U 22076B   22250.58334491  .00006100  00000-0  40100-3 0  9991,2 52987  53.2182  86.2566 0001748  66.7831 262.6415 15.08842856  1305,6917.871999999999,95.437,540.946,538.5269999999998,0.0
52987.0,STARLINK-4259,PAYLOAD,2022-09-07 22:00:00,15.08832719,0.0001858,53.218,84.762,59.4911,281.5374,0.0010004,0.00015666,0.0,0 STARLINK-4259,1 52987U 22076B   22250.91667824  .00015666  00000-0  10004-2 0  9993,2 52987  53.2180  84.7620 0001858  59.4911 281.5374 15.08832719  1308,6917.903,95.438,541.053,538.482,0.0
52987.0,STARLINK-4259,PAYLOAD,2022-09-08 14:00:01,15.088351,0.0001676999999999,53.2177,81.7676,65.533,298.6736,3.2238e-05,2.25e-06,0.0,0 STARLINK-4259,1 52987U 22076B   22251.58334491  .00000225  00000-0  32238-4 0  9998,2 52987  53.2177  81.7676 0001677  65.5330 298.6736 15.08835100  1302,6917.895,95.438,540.92,538.6,0.0
52987.0,STARLINK-4259,PAYLOAD,2022-09-08 22:00:00,15.0881695,0.0001814,53.2176,80.2728,58.1526,317.6492,0.0022427,0.00035563,0.0,0 STARLINK-4259,1 52987U 22076B   22251.91667824  .00035563  00000-0  22427-2 0  9994,2 52987  53.2176  80.2728 0001814  58.1526 317.6492 15.08816950  1304,6917.951,95.439,541.071,538.561,0.0
52987.0,STARLINK-4259,PAYLOAD,2022-09-09 14:00:01,15.08868633,0.0001699999999999,53.2175,77.2782,63.828,335.1502,-0.0020025,-0.00032042,0.0,0 STARLINK-4259,1 52987U 22076B   22252.58334491 -.00032042  00000-0 -20025-2 0  9992,2 52987  53.2175  77.2782 0001700  63.8280 335.1502 15.08868633  1305,6917.793000000002,95.436,540.8340000000002,538.482,0.0
52987.0,STARLINK-4259,PAYLOAD,2022-09-09 22:00:00,15.0881419,0.0001774999999999,53.2176,75.7833,55.882,354.7204,0.0021324,0.00033788,0.0,0 STARLINK-4259,1 52987U 22076B   22252.91667824  .00033788  00000-0  21324-2 0  9997,2 52987  53.2176  75.7833 0001775  55.8820 354.7204 15.08814190  1304,6917.959,95.439,541.052,538.596,0.0
52987.0,STARLINK-4259,PAYLOAD,2022-09-10 14:00:01,15.08856801,0.0001684,53.2179,72.7887,60.9639,12.8028,-0.00062152,-0.00010171,0.0,0 STARLINK-4259,1 52987U 22076B   22253.58334491 -.00010171  00000-0 -62152-3 0  9990,2 52987  53.2179  72.7887 0001684  60.9639  12.8028 15.08856801 10522,6917.829000000002,95.436,540.859,538.529,0.0
52987.0,STARLINK-4259,PAYLOAD,2022-09-10 22:00:00,15.08825876,0.000176,53.218,71.2937,53.1301,32.251999999999995,0.00077212,0.00012017,0.0,0 STARLINK-4259,1 52987U 22076B   22253.91667824  .00012017  00000-0  77212-3 0  9998,2 52987  53.2180  71.2937 0001760  53.1301  32.2520 15.08825876  1306,6917.924,95.438,541.006,538.571,0.0
